{"type": "FeatureCollection", "features": [ {"type": "Feature", "properties": {"norad_id": 34529, "name": "IRIDIUM 33 DEB", "group": "iridium-33-debris", "lat": 31.733395468424828, "lon": -150.56846694598335, "alt_km": 750.594283248056, "timestamp": "2025-12-21T11:31:43.243996+00:00", "meta": {"OBJECT_NAME": "IRIDIUM 33 DEB", "OBJECT_ID": "1997-051HW", "EPOCH": "2025-12-21T02:30:30.769056", "MEAN_MOTION": 14.40621874, "ECCENTRICITY": 0.0005784, "INCLINATION": 86.3633, "RA_OF_ASC_NODE": 31.8458, "ARG_OF_PERICENTER": 152.3196, "MEAN_ANOMALY": 207.8312, "EPHEMERIS_TYPE": 0, "CLASSIFICATION_TYPE": "U", "NORAD_CAT_ID": 34529, "ELEMENT_SET_NO": 999, "REV_AT_EPOCH": 88262, "BSTAR": 8.4651e-05, "MEAN_MOTION_DOT": 2.9e-06, "MEAN_MOTION_DDOT": 0}, "tle": {"line1": "1 34529U 97051HW  25355.10452279  .00000290  00000+0  84651-4 0  9993", "line2": "2 34529  86.3633  31.8458 0005784 152.3196 207.8312 14.40621874882620"}}, "geometry": {"type": "Point", "coordinates": [-150.56846694598335, 31.733395468424828]}}, {"type": "Feature", "properties": {"norad_id": 34538, "name": "IRIDIUM 33 DEB", "group": "iridium-33-debris", "lat": 49.88616605396946, "lon": 6.161296076377196, "alt_km": 753.7371420429918, "timestamp": "2025-12-21T11:31:43.244007+00:00", "meta": {"OBJECT_NAME": "IRIDIUM 33 DEB", "OBJECT_ID": "1997-051JF", "EPOCH": "2025-12-21T01:35:09.172896", "MEAN_MOTION": 14.4269214, "ECCENTRICITY": 0.0032129, "INCLINATION": 86.2756, "RA_OF_ASC_NODE": 1.9085, "ARG_OF_PERICENTER": 299.2748, "MEAN_ANOMALY": 120.1935, "EPHEMERIS_TYPE": 0, "CLASSIFICATION_TYPE": "U", "NORAD_CAT_ID": 34538, "ELEMENT_SET_NO": 999, "REV_AT_EPOCH": 87876, "BSTAR": 0.00062386, "MEAN_MOTION_DOT": 2.106e-05, "MEAN_MOTION_DDOT": 0}, "tle": {"line1": "1 34538U 97051JF  25355.06607839  .00002106  00000+0  62386-3 0  9990", "line2": "2 34538  86.2756   1.9085 0032129 299.2748 120.1935 14.42692140878760"}}, "geometry": {"type": "Point", "coordinates": [6.161296076377196, 49.88616605396946]}}, {"type": "Feature", "properties": {"norad_id": 34540, "name": "IRIDIUM 33 DEB", "group": "iridium-33-debris", "lat": 56.01545906353758, "lon": -50.898378656967964, "alt_km": 634.8005119760173, "timestamp": "2025-12-21T11:31:43.244018+00:00", "meta": {"OBJECT_NAME": "IRIDIUM 33 DEB", "OBJECT_ID": "1997-051JH", "EPOCH": "2025-12-21T03:12:48.464928", "MEAN_MOTION": 14.7547443, "ECCENTRICITY": 0.0017711, "INCLINATION": 86.311, "RA_OF_ASC_NODE": 303.768, "ARG_OF_PERICENTER": 130.8204, "MEAN_ANOMALY": 246.4988, "EPHEMERIS_TYPE": 0, "CLASSIFICATION_TYPE": "U", "NORAD_CAT_ID": 34540, "ELEMENT_SET_NO": 999, "REV_AT_EPOCH": 89145, "BSTAR": 0.0010238, "MEAN_MOTION_DOT": 7.004e-05, "MEAN_MOTION_DDOT": 0}, "tle": {"line1": "1 34540U 97051JH  25355.13389427  .00007004  00000+0  10238-2 0  9991", "line2": "2 34540  86.3110 303.7680 0017711 130.8204 246.4988 14.75474430891456"}}, "geometry": {"type": "Point", "coordinates": [-50.898378656967964, 56.01545906353758]}}, {"type": "Feature", "properties": {"norad_id": 34648, "name": "IRIDIUM 33 DEB", "group": "iridium-33-debris", "lat": 1.1181179522182514, "lon": -81.51271939306253, "alt_km": 853.4075617420422, "timestamp": "2025-12-21T11:31:43.244028+00:00", "meta": {"OBJECT_NAME": "IRIDIUM 33 DEB", "OBJECT_ID": "1997-051JZ", "EPOCH": "2025-12-21T01:19:00.379200", "MEAN_MOTION": 14.11717804, "ECCENTRICITY": 0.0180072, "INCLINATION": 86.3908, "RA_OF_ASC_NODE": 278.5885, "ARG_OF_PERICENTER": 272.8374, "MEAN_ANOMALY": 85.2213, "EPHEMERIS_TYPE": 0, "CLASSIFICATION_TYPE": "U", "NORAD_CAT_ID": 34648, "ELEMENT_SET_NO": 999, "REV_AT_EPOCH": 85078, "BSTAR": 0.0043851, "MEAN_MOTION_DOT": 9.319e-05, "MEAN_MOTION_DDOT": 0}, "tle": {"line1": "1 34648U 97051JZ  25355.05486550  .00009319  00000+0  43851-2 0  9994", "line2": "2 34648  86.3908 278.5885 0180072 272.8374  85.2213 14.11717804850788"}}, "geometry": {"type": "Point", "coordinates": [-81.51271939306253, 1.1181179522182514]}}, {"type": "Feature", "properties": {"norad_id": 34651, "name": "IRIDIUM 33 DEB", "group": "iridium-33-debris", "lat": 35.73554383350437, "lon": -45.82219581707794, "alt_km": 716.0287479874405, "timestamp": "2025-12-21T11:31:43.244039+00:00", "meta": {"OBJECT_NAME": "IRIDIUM 33 DEB", "OBJECT_ID": "1997-051KC", "EPOCH": "2025-12-19T16:44:48.420096", "MEAN_MOTION": 14.25922062, "ECCENTRICITY": 0.01422464, "INCLINATION": 86.2827, "RA_OF_ASC_NODE": 137.6175, "ARG_OF_PERICENTER": 181.9677, "MEAN_ANOMALY": 178.0974, "EPHEMERIS_TYPE": 0, "CLASSIFICATION_TYPE": "U", "NORAD_CAT_ID": 34651, "ELEMENT_SET_NO": 999, "REV_AT_EPOCH": 85995, "BSTAR": 0.0022061693, "MEAN_MOTION_DOT": 5.865e-05, "MEAN_MOTION_DDOT": 0}, "tle": {"line1": "1 34651U 97051KC  25353.69778264  .00005865  00000+0  22062-2 0  9995", "line2": "2 34651  86.2827 137.6175 0142246 181.9677 178.0974 14.25922062859957"}}, "geometry": {"type": "Point", "coordinates": [-45.82219581707794, 35.73554383350437]}}, {"type": "Feature", "properties": {"norad_id": 34652, "name": "IRIDIUM 33 DEB", "group": "iridium-33-debris", "lat": -73.34382674142489, "lon": 168.49307323226213, "alt_km": 676.1390725649389, "timestamp": "2025-12-21T11:31:43.244049+00:00", "meta": {"OBJECT_NAME": "IRIDIUM 33 DEB", "OBJECT_ID": "1997-051KD", "EPOCH": "2025-12-20T16:52:48.078336", "MEAN_MOTION": 14.62123856, "ECCENTRICITY": 0.00255005, "INCLINATION": 86.3312, "RA_OF_ASC_NODE": 336.455, "ARG_OF_PERICENTER": 269.1159, "MEAN_ANOMALY": 217.3003, "EPHEMERIS_TYPE": 0, "CLASSIFICATION_TYPE": "U", "NORAD_CAT_ID": 34652, "ELEMENT_SET_NO": 999, "REV_AT_EPOCH": 88600, "BSTAR": 0.00058363699, "MEAN_MOTION_DOT": 2.968e-05, "MEAN_MOTION_DDOT": 0}, "tle": {"line1": "1 34652U 97051KD  25354.70333424  .00002968  00000+0  58364-3 0  9990", "line2": "2 34652  86.3312 336.4550 0025500 269.1159 217.3003 14.62123856886002"}}, "geometry": {"type": "Point", "coordinates": [168.49307323226213, -73.34382674142489]}}, {"type": "Feature", "properties": {"norad_id": 34690, "name": "IRIDIUM 33 DEB", "group": "iridium-33-debris", "lat": -76.5249993589078, "lon": -131.4766949317495, "alt_km": 718.0085173850348, "timestamp": "2025-12-21T11:31:43.244059+00:00", "meta": {"OBJECT_NAME": "IRIDIUM 33 DEB", "OBJECT_ID": "1997-051KM", "EPOCH": "2025-12-21T02:14:02.861088", "MEAN_MOTION": 14.55122739, "ECCENTRICITY": 0.0009876, "INCLINATION": 86.3773, "RA_OF_ASC_NODE": 33.3605, "ARG_OF_PERICENTER": 1.7251, "MEAN_ANOMALY": 27.9675, "EPHEMERIS_TYPE": 0, "CLASSIFICATION_TYPE": "U", "NORAD_CAT_ID": 34690, "ELEMENT_SET_NO": 999, "REV_AT_EPOCH": 88216, "BSTAR": 0.00028933, "MEAN_MOTION_DOT": 1.27e-05, "MEAN_MOTION_DDOT": 0}, "tle": {"line1": "1 34690U 97051KM  25355.09308867  .00001270  00000+0  28933-3 0  9992", "line2": "2 34690  86.3773  33.3605 0009876   1.7251  27.9675 14.55122739882164"}}, "geometry": {"type": "Point", "coordinates": [-131.4766949317495, -76.5249993589078]}}, {"type": "Feature", "properties": {"norad_id": 34693, "name": "IRIDIUM 33 DEB", "group": "iridium-33-debris", "lat": 73.49816679713736, "lon": 106.86712280415954, "alt_km": 466.47579819522616, "timestamp": "2025-12-21T11:31:43.244070+00:00", "meta": {"OBJECT_NAME": "IRIDIUM 33 DEB", "OBJECT_ID": "1997-051KQ", "EPOCH": "2025-12-21T03:16:31.470240", "MEAN_MOTION": 15.29807867, "ECCENTRICITY": 0.0011753, "INCLINATION": 86.3031, "RA_OF_ASC_NODE": 299.6452, "ARG_OF_PERICENTER": 37.5614, "MEAN_ANOMALY": 335.7498, "EPHEMERIS_TYPE": 0, "CLASSIFICATION_TYPE": "U", "NORAD_CAT_ID": 34693, "ELEMENT_SET_NO": 999, "REV_AT_EPOCH": 89043, "BSTAR": 0.0032408, "MEAN_MOTION_DOT": 0.00094734, "MEAN_MOTION_DDOT": 0}, "tle": {"line1": "1 34693U 97051KQ  25355.13647535  .00094734  00000+0  32408-2 0  9996", "line2": "2 34693  86.3031 299.6452 0011753  37.5614 335.7498 15.29807867890434"}}, "geometry": {"type": "Point", "coordinates": [106.86712280415954, 73.49816679713736]}}, {"type": "Feature", "properties": {"norad_id": 34696, "name": "IRIDIUM 33 DEB", "group": "iridium-33-debris", "lat": -4.481825280837858, "lon": 23.153900760012377, "alt_km": 720.3575584569753, "timestamp": "2025-12-21T11:31:43.244081+00:00", "meta": {"OBJECT_NAME": "IRIDIUM 33 DEB", "OBJECT_ID": "1997-051KT", "EPOCH": "2025-12-20T03:03:36.896832", "MEAN_MOTION": 14.65425134, "ECCENTRICITY": 0.0073881, "INCLINATION": 86.1833, "RA_OF_ASC_NODE": 24.0835, "ARG_OF_PERICENTER": 142.6074, "MEAN_ANOMALY": 281.0712, "EPHEMERIS_TYPE": 0, "CLASSIFICATION_TYPE": "U", "NORAD_CAT_ID": 34696, "ELEMENT_SET_NO": 999, "REV_AT_EPOCH": 86781, "BSTAR": 0.0025217059, "MEAN_MOTION_DOT": 0.00014237, "MEAN_MOTION_DDOT": 0}, "tle": {"line1": "1 34696U 97051KT  25354.12751038  .00014237  00000+0  25217-2 0  9991", "line2": "2 34696  86.1833  24.0835 0073881 142.6074 281.0712 14.65425134867818"}}, "geometry": {"type": "Point", "coordinates": [23.153900760012377, -4.481825280837858]}}, {"type": "Feature", "properties": {"norad_id": 34765, "name": "IRIDIUM 33 DEB", "group": "iridium-33-debris", "lat": -6.102173746943837, "lon": -150.5965957693965, "alt_km": 749.2638581271958, "timestamp": "2025-12-21T11:31:43.244090+00:00", "meta": {"OBJECT_NAME": "IRIDIUM 33 DEB", "OBJECT_ID": "1997-051LJ", "EPOCH": "2025-12-18T13:21:25.941600", "MEAN_MOTION": 14.40479279, "ECCENTRICITY": 0.00160914, "INCLINATION": 86.3386, "RA_OF_ASC_NODE": 30.2656, "ARG_OF_PERICENTER": 191.4295, "MEAN_ANOMALY": 322.071, "EPHEMERIS_TYPE": 0, "CLASSIFICATION_TYPE": "U", "NORAD_CAT_ID": 34765, "ELEMENT_SET_NO": 999, "REV_AT_EPOCH": 87697, "BSTAR": 0.00029987235, "MEAN_MOTION_DOT": 9.74e-06, "MEAN_MOTION_DDOT": 0}, "tle": {"line1": "1 34765U 97051LJ  25352.55655025  .00000974  00000+0  29987-3 0  9994", "line2": "2 34765  86.3386  30.2656 0016091 191.4295 322.0710 14.40479279876970"}}, "geometry": {"type": "Point", "coordinates": [-150.5965957693965, -6.102173746943837]}}]}